[{"name":"ALOS-2","line1":"1 39766U 14029A   26177.60776922  .00001296  00000+0  18043-3 0  9995","line2":"2 39766  97.9220 274.6369 0001583  88.2015 271.9378 14.79471388652978"},{"name":"KAZEOSAT 2","line1":"1 40010U 14033A   26177.59309057  .00001230  00000+0  14834-3 0  9995","line2":"2 40010  97.5409  16.7081 0007123 294.3781  65.6691 14.85482861650350"},{"name":"HODOYOSHI-4","line1":"1 40011U 14033B   26177.64934633  .00001186  00000+0  13394-3 0  9996","line2":"2 40011  97.5454   2.0150 0022106 275.0789  84.7906 14.88146158650213"},{"name":"DEIMOS-2","line1":"1 40013U 14033D   26177.62843078  .00000941  00000+0  93970-4 0  9995","line2":"2 40013  97.5829  51.7855 0001234  54.5806 305.5530 14.93749841639132"},{"name":"HODOYOSHI-3","line1":"1 40015U 14033F   26177.41379235  .00001036  00000+0  12537-3 0  9998","line2":"2 40015  97.6425 340.0832 0031919 326.3944  33.5247 14.85405990648994"},{"name":"SPOT 7","line1":"1 40053U 14034A   26177.77001812  .00000796  00000+0  17168-3 0  9990","line2":"2 40053  98.0629 240.0149 0001339  92.6044 267.5310 14.60967329638535"},{"name":"SKYSAT-B","line1":"1 40072U 14037D   26177.47195454  .00001181  00000+0  13518-3 0  9991","line2":"2 40072  98.3842 136.9663 0004258 241.5149 118.5637 14.88049121647341"},{"name":"WORLDVIEW-3 (WV-3)","line1":"1 40115U 14048A   26177.53318914  .00000773  00000+0  96752-4 0  9994","line2":"2 40115  97.8564 252.2370 0000224  20.5499 339.5725 14.85035859643296"},{"name":"GAOFEN-2","line1":"1 40118U 14049A   26177.63579637  .00000703  00000+0  97881-4 0  9997","line2":"2 40118  98.0110 241.8342 0006724 191.9865 168.1189 14.80908779640633"},{"name":"YAOGAN-21","line1":"1 40143U 14053A   26177.60245882  .00010284  00000+0  39586-3 0  9991","line2":"2 40143  97.1471 217.4345 0009661  66.2589 293.9663 15.26509887656395"},{"name":"YAOGAN-22","line1":"1 40275U 14063A   26177.38786614 -.00000029  00000+0  47847-4 0  9993","line2":"2 40275 100.7734 328.8143 0006548 164.9938 195.1368 13.15531169561026"},{"name":"ASNARO","line1":"1 40298U 14070A   26177.64219593  .00010769  00000+0  50876-3 0  9998","line2":"2 40298  97.3451 253.5014 0006311 136.4985 223.6749 15.19570887645448"},{"name":"YAOGAN-24","line1":"1 40310U 14072A   26177.63936795  .00000525  00000+0  83706-4 0  9992","line2":"2 40310  98.1495 315.0578 0013297 231.5494 128.4523 14.76096427625111"},{"name":"CBERS 4","line1":"1 40336U 14079A   26177.58637079  .00000318  00000+0  12518-3 0  9996","line2":"2 40336  98.3532 234.1233 0001567  54.4598 305.6734 14.35512145605303"},{"name":"YAOGAN-26","line1":"1 40362U 14088A   26177.63890750  .00009031  00000+0  17620-3 0  9998","line2":"2 40362  97.0643 177.6279 0004933  45.3639 314.8013 15.47707212639165"},{"name":"SMAP","line1":"1 40376U 15003A   26177.58418211  .00000397  00000+0  85818-4 0  9994","line2":"2 40376  98.1276 184.5455 0001429  98.5514 261.5851 14.63374091608993"},{"name":"KOMPSAT-3A","line1":"1 40536U 15014A   26177.77072968  .00028027  00000+0  39772-3 0  9997","line2":"2 40536  97.6882 169.8361 0057111 140.2875 220.2581 15.54447551623301"},{"name":"SENTINEL-2A","line1":"1 40697U 15028A   26177.72518682  .00000323  00000+0  13968-3 0  9991","line2":"2 40697  98.5684 252.4417 0001160  91.3719 268.7596 14.30818717575090"},{"name":"GAOFEN-8","line1":"1 40701U 15030A   26177.79586360  .00027588  00000+0  55956-3 0  9990","line2":"2 40701  97.6907  11.7444 0009480 153.5940 206.5794 15.46301054612934"},{"name":"CARBONITE 1 (CBNT-1)","line1":"1 40718U 15032D   26177.75971498  .00001683  00000+0  21001-3 0  9998","line2":"2 40718  97.6510 355.4257 0012934 263.3673  96.6069 14.83613669590760"},{"name":"YAOGAN-27","line1":"1 40878U 15040A   26177.75922493 -.00000104  00000+0 -16180-3 0  9996","line2":"2 40878 100.1153 163.7264 0007975 187.2013 172.8988 13.16070988518920"},{"name":"GAOFEN-9 01","line1":"1 40894U 15047A   26177.71185169  .00000938  00000+0  12117-3 0  9997","line2":"2 40894  97.6271 212.9737 0028845 107.9907 252.4455 14.82900836581608"},{"name":"YAOGAN-28","line1":"1 41026U 15064A   26177.62516171  .00006333  00000+0  23744-3 0  9998","line2":"2 41026  97.3079 315.6952 0011446 151.3458 208.8413 15.27533312592121"},{"name":"YAOGAN-29","line1":"1 41038U 15069A   26177.62332257  .00000397  00000+0  55384-4 0  9997","line2":"2 41038  98.0028 206.2708 0002127  38.1254 322.0110 14.83091538572022"},{"name":"KENT RIDGE 1","line1":"1 41167U 15077B   26177.39678528  .00004082  00000+0  13611-3 0  9998","line2":"2 41167  14.9781 197.4940 0008186   8.5301 351.5159 15.23182390582508"},{"name":"GAOFEN-4","line1":"1 41194U 15083A   26176.90227766 -.00000324  00000+0  00000+0 0  9995","line2":"2 41194   0.3805  83.9226 0004051 113.8387 146.7998  1.00271078 38616"},{"name":"JASON-3","line1":"1 41240U 16002A   26177.55613859 -.00000073  00000+0 -40758-4 0  9994","line2":"2 41240  66.0415 106.1389 0008400 272.4109  87.5948 12.87622888488452"},{"name":"SENTINEL-3A","line1":"1 41335U 16011A   26177.75423110  .00000085  00000+0  53149-4 0  9999","line2":"2 41335  98.6246 245.0004 0001437  96.8596 263.2748 14.26735047539420"},{"name":"ZIYUAN 3-02 (ZY 3-02)","line1":"1 41556U 16033A   26177.59589329  .00005434  00000+0  24577-3 0  9990","line2":"2 41556  97.3839 253.1891 0012478 254.3189 105.6671 15.21264400559410"},{"name":"CARTOSAT-2C","line1":"1 41599U 16040A   26177.74269604  .00005258  00000+0  25227-3 0  9990","line2":"2 41599  97.4484 237.5892 0010541 101.9957 258.2459 15.19264713555161"}]