OBJECT_NAME,OBJECT_ID,EPOCH,MEAN_MOTION,ECCENTRICITY,INCLINATION,RA_OF_ASC_NODE,ARG_OF_PERICENTER,MEAN_ANOMALY,EPHEMERIS_TYPE,CLASSIFICATION_TYPE,NORAD_CAT_ID,ELEMENT_SET_NO,REV_AT_EPOCH,BSTAR,MEAN_MOTION_DOT,MEAN_MOTION_DDOT
ALOS-2,2014-029A,2026-06-26T14:35:11.260608,14.79471388,.00015836,97.9220,274.6369,88.2015,271.9378,0,U,39766,999,65297,.18042852E-3,.1296E-4,0
KAZEOSAT 2,2014-033A,2026-06-26T14:14:03.025248,14.85482861,.00071232,97.5409,16.7081,294.3781,65.6691,0,U,40010,999,65035,.14834304E-3,.123E-4,0
HODOYOSHI-4,2014-033B,2026-06-26T15:35:03.522912,14.88146158,.00221068,97.5454,2.0150,275.0789,84.7906,0,U,40011,999,65021,.13394497E-3,.1186E-4,0
DEIMOS-2,2014-033D,2026-06-26T15:04:56.419392,14.93749841,.00012343,97.5829,51.7855,54.5806,305.5530,0,U,40013,999,63913,.9397021E-4,.941E-5,0
HODOYOSHI-3,2014-033F,2026-06-26T09:55:51.659040,14.85405990,.00319196,97.6425,340.0832,326.3944,33.5247,0,U,40015,999,64899,.12537154E-3,.1036E-4,0
SPOT 7,2014-034A,2026-06-26T18:28:49.565568,14.60967329,.0001339,98.0629,240.0149,92.6044,267.5310,0,U,40053,999,63853,.17168E-3,.796E-5,0
SKYSAT-B,2014-037D,2026-06-26T11:19:36.872256,14.88049121,.0004258,98.3842,136.9663,241.5149,118.5637,0,U,40072,999,64734,.13518E-3,.1181E-4,0
WORLDVIEW-3 (WV-3),2014-048A,2026-06-26T12:47:47.541696,14.85035859,.00002242,97.8564,252.2370,20.5499,339.5725,0,U,40115,999,64329,.96752383E-4,.773E-5,0
GAOFEN-2,2014-049A,2026-06-26T15:15:32.806368,14.80908779,.00067248,98.0110,241.8342,191.9865,168.1189,0,U,40118,999,64063,.97880973E-4,.703E-5,0
YAOGAN-21,2014-053A,2026-06-26T14:27:32.442048,15.26509887,.00096611,97.1471,217.4345,66.2589,293.9663,0,U,40143,999,65639,.39585905E-3,.10284E-3,0
YAOGAN-22,2014-063A,2026-06-26T09:18:31.634496,13.15531169,.00065484,100.7734,328.8143,164.9938,195.1368,0,U,40275,999,56102,.47846806E-4,-.29E-6,0
ASNARO,2014-070A,2026-06-26T15:24:45.728352,15.19570887,.00063117,97.3451,253.5014,136.4985,223.6749,0,U,40298,999,64544,.50876233E-3,.10769E-3,0
YAOGAN-24,2014-072A,2026-06-26T15:20:41.390880,14.76096427,.00132978,98.1495,315.0578,231.5494,128.4523,0,U,40310,999,62511,.83706202E-4,.525E-5,0
CBERS 4,2014-079A,2026-06-26T14:04:22.436256,14.35512145,.00015679,98.3532,234.1233,54.4598,305.6734,0,U,40336,999,60530,.12518312E-3,.318E-5,0
YAOGAN-26,2014-088A,2026-06-26T15:20:01.608000,15.47707212,.00049337,97.0643,177.6279,45.3639,314.8013,0,U,40362,999,63916,.17619932E-3,.9031E-4,0
SMAP,2015-003A,2026-06-26T14:01:13.334304,14.63374091,.00014295,98.1276,184.5455,98.5514,261.5851,0,U,40376,999,60899,.85817563E-4,.397E-5,0
KOMPSAT-3A,2015-014A,2026-06-26T18:29:51.044352,15.54447551,.0057111,97.6882,169.8361,140.2875,220.2581,0,U,40536,999,62330,.39772E-3,.28027E-3,0
SENTINEL-2A,2015-028A,2026-06-26T17:24:16.141248,14.30818717,.000116,98.5684,252.4417,91.3719,268.7596,0,U,40697,999,57509,.13968E-3,.323E-5,0
GAOFEN-8,2015-030A,2026-06-26T19:06:02.615040,15.46301054,.000948,97.6907,11.7444,153.5940,206.5794,0,U,40701,999,61293,.55956E-3,.27588E-3,0
CARBONITE 1 (CBNT-1),2015-032D,2026-06-26T18:13:59.374272,14.83613669,.0012934,97.6510,355.4257,263.3673,96.6069,0,U,40718,999,59076,.21001E-3,.1683E-4,0
YAOGAN-27,2015-040A,2026-06-26T18:13:17.033952,13.16070988,.0007975,100.1153,163.7264,187.2013,172.8988,0,U,40878,999,51892,-.1618E-3,-.104E-5,0
GAOFEN-9 01,2015-047A,2026-06-26T17:05:03.986016,14.82900836,.0028845,97.6271,212.9737,107.9907,252.4455,0,U,40894,999,58160,.12117E-3,.938E-5,0
YAOGAN-28,2015-064A,2026-06-26T15:00:13.971744,15.27533312,.00114468,97.3079,315.6952,151.3458,208.8413,0,U,41026,999,59212,.23743574E-3,.6333E-4,0
YAOGAN-29,2015-069A,2026-06-26T14:57:35.070048,14.83091538,.00021271,98.0028,206.2708,38.1254,322.0110,0,U,41038,999,57202,.55383774E-4,.397E-5,0
KENT RIDGE 1,2015-077B,2026-06-26T09:31:22.248192,15.23182390,.0008186,14.9781,197.4940,8.5301,351.5159,0,U,41167,999,58250,.13611E-3,.4082E-4,0
GAOFEN-4,2015-083A,2026-06-25T21:39:16.789824,1.00271078,.00040511,0.3805,83.9226,113.8387,146.7998,0,U,41194,999,3861,0,-.324E-5,0
JASON-3,2016-002A,2026-06-26T13:20:50.374176,12.87622888,.00084,66.0415,106.1389,272.4109,87.5948,0,U,41240,999,48845,-.40757544E-4,-.73E-6,0
SENTINEL-3A,2016-011A,2026-06-26T18:06:05.567040,14.26735047,.0001437,98.6246,245.0004,96.8596,263.2748,0,U,41335,999,53942,.53149E-4,.85E-6,0
ZIYUAN 3-02 (ZY 3-02),2016-033A,2026-06-26T14:18:05.180256,15.21264400,.00124782,97.3839,253.1891,254.3189,105.6671,0,U,41556,999,55941,.24576605E-3,.5434E-4,0
CARTOSAT-2C,2016-040A,2026-06-26T17:49:28.937856,15.19264713,.0010541,97.4484,237.5892,101.9957,258.2459,0,U,41599,999,55516,.25227E-3,.5258E-4,0
